NORAD_CAT_ID,OBJECT_NAME,OBJECT_TYPE,EPOCH,MEAN_MOTION,ECCENTRICITY,INCLINATION,RA_OF_ASC_NODE,ARG_OF_PERICENTER,MEAN_ANOMALY,BSTAR,MEAN_MOTION_DOT,MEAN_MOTION_DDOT,TLE_LINE0,TLE_LINE1,TLE_LINE2,SEMIMAJOR_AXIS,PERIOD,APOGEE,PERIGEE,DECAYED
54009.0,STARLINK-5099,PAYLOAD,2024-02-11 08:05:30,15.08857357,0.0001607,53.219,13.6114,102.1096,258.0077,-8.4245e-05,-1.629e-05,0.0,0 STARLINK-5099,1 54009U 22125AX  24042.33715464 -.00001629  00000-0 -84245-4 0  9992,2 54009  53.2190  13.6114 0001607 102.1096 258.0077 15.08857357 75133,6917.827,95.436,540.804,538.581,0.0
54009.0,STARLINK-5099,PAYLOAD,2024-02-12 03:10:08,15.08844737,0.0001453,53.2188,10.0419,103.8812,256.2342,8.8271e-05,1.117e-05,0.0,0 STARLINK-5099,1 54009U 22125AX  24043.13203756  .00001117  00000-0  88271-4 0  9990,2 54009  53.2188  10.0419 0001453 103.8812 256.2342 15.08844737 75304,6917.866,95.437,540.736,538.726,0.0
54009.0,STARLINK-5099,PAYLOAD,2024-02-12 07:56:16,15.08852484,0.0001394,53.2185,9.148,107.5342,252.5802,0.00013241,1.821e-05,0.0,0 STARLINK-5099,1 54009U 22125AX  24043.33074843  .00001821  00000-0  13241-3 0  9991,2 54009  53.2185   9.1480 0001394 107.5342 252.5802 15.08852484 75332,6917.842,95.437,540.672,538.743,0.0
54009.0,STARLINK-5099,PAYLOAD,2024-02-13 04:36:18,15.08839741,0.0001198,53.2181,5.2898,85.7865,274.3264,-7.965e-05,-1.555e-05,0.0,0 STARLINK-5099,1 54009U 22125AX  24044.19188616 -.00001555  00000-0 -79650-4 0  9993,2 54009  53.2181   5.2898 0001198  85.7865 274.3264 15.08839741 75466,6917.881,95.438,540.575,538.917,0.0
54009.0,STARLINK-5099,PAYLOAD,2024-02-13 14:08:37,15.08842128,0.0001386,53.2187,3.5061,81.2884,278.8265,-6.0414e-05,-1.249e-05,0.0,0 STARLINK-5099,1 54009U 22125AX  24044.58932579 -.00001249  00000-0 -60414-4 0  9999,2 54009  53.2187   3.5061 0001386  81.2884 278.8265 15.08842128 75470,6917.874,95.437,540.698,538.78,0.0
54009.0,STARLINK-5099,PAYLOAD,2024-02-13 20:30:10,15.0883662,0.0001574,53.2182,2.3163,116.3961,243.7193,4.7673e-05,4.71e-06,0.0,0 STARLINK-5099,1 54009U 22125AX  24044.85428729  .00000471  00000-0  47673-4 0  9992,2 54009  53.2182   2.3163 0001574 116.3961 243.7193 15.08836620 75516,6917.891,95.438,540.845,538.667,0.0
54009.0,STARLINK-5099,PAYLOAD,2024-02-14 04:27:04,15.0885488,0.0001489,53.2186,0.8254,101.3553,258.7606,0.00012532,1.708e-05,0.0,0 STARLINK-5099,1 54009U 22125AX  24045.18547310  .00001708  00000-0  12532-3 0  9996,2 54009  53.2186   0.8254 0001489 101.3553 258.7606 15.08854880 75614,6917.835,95.437,540.73,538.67,0.0
54009.0,STARLINK-5099,PAYLOAD,2024-02-14 13:59:24,15.08845241,0.0001807,53.2187,359.0434,87.6202,272.4997,1.2464e-05,-9e-07,0.0,0 STARLINK-5099,1 54009U 22125AX  24045.58291865 -.00000090  00000-0  12464-4 0  9990,2 54009  53.2187 359.0434 0001807  87.6202 272.4997 15.08845241 75623,6917.864,95.437,540.979,538.479,0.0
54009.0,STARLINK-5099,PAYLOAD,2024-02-14 20:20:57,15.08838797,0.0002241,53.2174,357.8566,82.9338,277.1909,0.00020485,2.973e-05,0.0,0 STARLINK-5099,1 54009U 22125AX  24045.84788717  .00002973  00000-0  20485-3 0  9998,2 54009  53.2174 357.8566 0002241  82.9338 277.1909 15.08838797 75715,6917.884,95.438,541.299,538.199,0.0
54009.0,STARLINK-5099,PAYLOAD,2024-02-15 02:42:30,15.08827612,0.0001191,53.2178,356.6675,91.0634,269.0494,5.2315e-05,5.45e-06,0.0,0 STARLINK-5099,1 54009U 22125AX  24046.11285588  .00000545  00000-0  52315-4 0  9998,2 54009  53.2178 356.6675 0001191  91.0634 269.0494 15.08827612 75757,6917.918,95.438,540.607,538.959,0.0
54009.0,STARLINK-5099,PAYLOAD,2024-02-15 05:53:16,15.08843369,0.000137,53.2179,356.0726,83.566,276.5488,0.00020597,2.992e-05,0.0,0 STARLINK-5099,1 54009U 22125AX  24046.24532483  .00002992  00000-0  20597-3 0  9995,2 54009  53.2179 356.0726 0001370  83.5660 276.5488 15.08843369 75778,6917.87,95.437,540.683,538.787,0.0
54009.0,STARLINK-5099,PAYLOAD,2024-02-15 20:11:44,15.08834955,0.0001481,53.2187,353.3957,80.5047,279.6112,1.4054e-05,-6.4e-07,0.0,0 STARLINK-5099,1 54009U 22125AX  24046.84149223 -.00000064  00000-0  14054-4 0  9998,2 54009  53.2187 353.3957 0001481  80.5047 279.6112 15.08834955 75861,6917.896,95.438,540.785,538.736,0.0
54009.0,STARLINK-5099,PAYLOAD,2024-02-16 02:33:16,15.08846518,0.0001402,53.2176,352.2066,82.9693,277.1459,2.7952e-05,1.57e-06,0.0,0 STARLINK-5099,1 54009U 22125AX  24047.10644617  .00000157  00000-0  27952-4 0  9998,2 54009  53.2176 352.2066 0001402  82.9693 277.1459 15.08846518 75904,6917.86,95.437,540.695,538.756,0.0
54009.0,STARLINK-5099,PAYLOAD,2024-02-16 13:40:58,15.08851968,0.0001533,53.2181,350.1258,77.2322,282.8841,0.00012817,1.753e-05,0.0,0 STARLINK-5099,1 54009U 22125AX  24047.57012273  .00001753  00000-0  12817-3 0  9992,2 54009  53.2181 350.1258 0001533  77.2322 282.8841 15.08851968 75926,6917.844,95.437,540.769,538.648,0.0
54009.0,STARLINK-5099,PAYLOAD,2024-02-17 05:34:49,15.08851172,0.0001664,53.2191,347.1465,112.5161,247.6007,0.00022131,3.237e-05,0.0,0 STARLINK-5099,1 54009U 22125AX  24048.23252228  .00003237  00000-0  22131-3 0  9991,2 54009  53.2191 347.1465 0001664 112.5161 247.6007 15.08851172 76079,6917.846,95.437,540.862,538.56,0.0
54009.0,STARLINK-5099,PAYLOAD,2024-02-17 19:53:19,15.08832446,0.0001477,53.2194,344.4764,77.8175,282.2982,-5.6985e-05,-1.195e-05,0.0,0 STARLINK-5099,1 54009U 22125AX  24048.82869499 -.00001195  00000-0 -56985-4 0  9998,2 54009  53.2194 344.4764 0001477  77.8175 282.2982 15.08832446 76164,6917.903,95.438,540.79,538.747,0.0
54009.0,STARLINK-5099,PAYLOAD,2024-02-18 05:25:37,15.0884568,0.0001444,53.2184,342.6881,95.9914,264.1243,0.00013802,1.91e-05,0.0,0 STARLINK-5099,1 54009U 22125AX  24049.22612881  .00001910  00000-0  13802-3 0  9997,2 54009  53.2184 342.6881 0001444  95.9914 264.1243 15.08845680 76229,6917.863,95.437,540.727,538.729,0.0
54009.0,STARLINK-5099,PAYLOAD,2024-02-18 22:54:52,15.08842582,0.0001419,53.2181,339.416,92.4661,267.6493,0.0001699,2.417e-05,0.0,0 STARLINK-5099,1 54009U 22125AX  24049.95477065  .00002417  00000-0  16990-3 0  9994,2 54009  53.2181 339.4160 0001419  92.4661 267.6493 15.08842582 76282,6917.872,95.437,540.719,538.756,0.0
54009.0,STARLINK-5099,PAYLOAD,2024-02-19 11:37:57,15.08845265,0.0001279,53.2166,337.036,92.793,267.3209,0.00029263,4.373e-05,0.0,0 STARLINK-5099,1 54009U 22125AX  24050.48468847  .00004373  00000-0  29263-3 0  9992,2 54009  53.2166 337.0360 0001279  92.7930 267.3209 15.08845265 76415,6917.864,95.437,540.614,538.845,0.0
54009.0,STARLINK-5099,PAYLOAD,2024-02-19 22:45:39,15.08831759,0.0001698,53.2199,334.9612,97.3419,262.7766,-8.1649e-05,-1.587e-05,0.0,0 STARLINK-5099,1 54009U 22125AX  24050.94837680 -.00001587  00000-0 -81649-4 0  9991,2 54009  53.2199 334.9612 0001698  97.3419 262.7766 15.08831759 76437,6917.906,95.438,540.945,538.596,0.0
54009.0,STARLINK-5099,PAYLOAD,2024-02-20 01:56:25,15.08833492,0.0001542,53.2195,334.3681,96.8768,263.24,-2.9487e-05,-7.57e-06,0.0,0 STARLINK-5099,1 54009U 22125AX  24051.08085613 -.00000757  00000-0 -29487-4 0  9998,2 54009  53.2195 334.3681 0001542  96.8768 263.2400 15.08833492 76507,6917.9,95.438,540.832,538.699,0.0
54009.0,STARLINK-5099,PAYLOAD,2024-02-20 11:28:44,15.08833248,0.0001481,53.2166,332.5805,89.6944,270.4218,6.7106e-05,7.8e-06,0.0,0 STARLINK-5099,1 54009U 22125AX  24051.47829736  .00000780  00000-0  67106-4 0  9997,2 54009  53.2166 332.5805 0001481  89.6944 270.4218 15.08833248 76518,6917.901,95.438,540.791,538.741,0.0
54009.0,STARLINK-5099,PAYLOAD,2024-02-21 03:22:36,15.08848533,0.0001149,53.2167,329.6051,82.3952,277.7171,0.00058237,8.995e-05,0.0,0 STARLINK-5099,1 54009U 22125AX  24052.14069503  .00008995  00000-0  58237-3 0  9990,2 54009  53.2167 329.6051 0001149  82.3952 277.7171 15.08848533 76666,6917.854,95.437,540.514,538.924,0.0
54009.0,STARLINK-5099,PAYLOAD,2024-02-21 11:19:31,15.0884546,0.0001429,53.2184,328.1195,100.5242,259.5911,0.00029482,4.408e-05,0.0,0 STARLINK-5099,1 54009U 22125AX  24052.47189553  .00004408  00000-0  29482-3 0  9999,2 54009  53.2184 328.1195 0001429 100.5242 259.5911 15.08845460 76716,6917.864,95.437,540.717,538.74,0.0
54009.0,STARLINK-5099,PAYLOAD,2024-02-21 22:27:13,15.08838859,0.0001683,53.2184,326.0371,104.6208,255.4971,5.8254e-05,6.39e-06,0.0,0 STARLINK-5099,1 54009U 22125AX  24052.93557710  .00000639  00000-0  58254-4 0  9996,2 54009  53.2184 326.0371 0001683 104.6208 255.4971 15.08838859 76735,6917.884,95.438,540.913,538.585,0.0
54009.0,STARLINK-5099,PAYLOAD,2024-02-22 11:10:18,15.08837545,0.0001459,53.2179,323.6567,97.9477,262.168,6.8804e-05,8.07e-06,0.0,0 STARLINK-5099,1 54009U 22125AX  24053.46549746  .00000807  00000-0  68804-4 0  9994,2 54009  53.2179 323.6567 0001459  97.9477 262.1680 15.08837545 76869,6917.888,95.438,540.762,538.744,0.0
54009.0,STARLINK-5099,PAYLOAD,2024-02-22 22:18:00,15.08842921,0.0001512,53.2175,321.5776,97.1526,262.9638,0.0001201,1.624e-05,0.0,0 STARLINK-5099,1 54009U 22125AX  24053.92917736  .00001624  00000-0  12010-3 0  9998,2 54009  53.2175 321.5776 0001512  97.1526 262.9638 15.08842921 76888,6917.871,95.437,540.782,538.69,0.0
54009.0,STARLINK-5099,PAYLOAD,2024-02-23 03:04:09,15.08851836,0.0001524,53.2179,320.6824,99.022,261.0945,0.00024143,3.558e-05,0.0,0 STARLINK-5099,1 54009U 22125AX  24054.12789309  .00003558  00000-0  24143-3 0  9992,2 54009  53.2179 320.6824 0001524  99.0220 261.0945 15.08851836 76966,6917.844,95.437,540.763,538.655,0.0
54009.0,STARLINK-5099,PAYLOAD,2024-02-23 11:01:06,15.08838895,0.0001274,53.2185,319.1985,97.7029,262.4108,6.4656e-05,7.41e-06,0.0,0 STARLINK-5099,1 54009U 22125AX  24054.45909817  .00000741  00000-0  64656-4 0  9991,2 54009  53.2185 319.1985 0001274  97.7029 262.4108 15.08838895 77011,6917.884,95.438,540.63,538.867,0.0
54009.0,STARLINK-5099,PAYLOAD,2024-02-23 22:08:48,15.08839128,0.0001661,53.2177,317.1151,102.5094,257.6084,0.0001238,1.683e-05,0.0,0 STARLINK-5099,1 54009U 22125AX  24054.92278073  .00001683  00000-0  12380-3 0  9998,2 54009  53.2177 317.1151 0001661 102.5094 257.6084 15.08839128 77033,6917.883,95.438,540.897,538.599,0.0
